{
    "links": {
        "self": "http://www.neowsapp.com/rest/v1/neo/3843598?api_key=iIulBulltgU6a56xZRHN4H3l9WmuAYTsLGpBGhQ2"
    },
    "id": "3843598",
    "neo_reference_id": "3843598",
    "name": "(2019 QK1)",
    "designation": "2019 QK1",
    "nasa_jpl_url": "http://ssd.jpl.nasa.gov/sbdb.cgi?sstr=3843598",
    "absolute_magnitude_h": 26.9,
    "estimated_diameter": {
        "kilometers": {
            "estimated_diameter_min": 0.0110803882,
            "estimated_diameter_max": 0.0247765013
        },
        "meters": {
            "estimated_diameter_min": 11.0803882126,
            "estimated_diameter_max": 24.7765012606
        },
        "miles": {
            "estimated_diameter_min": 0.0068850319,
            "estimated_diameter_max": 0.0153953994
        },
        "feet": {
            "estimated_diameter_min": 36.3529808636,
            "estimated_diameter_max": 81.2877363957
        }
    },
    "is_potentially_hazardous_asteroid": false,
    "close_approach_data": [
        {
            "close_approach_date": "2019-08-21",
            "close_approach_date_full": "2019-Aug-21 19:47",
            "epoch_date_close_approach": 1566416820000,
            "relative_velocity": {
                "kilometers_per_second": "7.9989234786",
                "kilometers_per_hour": "28796.1245229028",
                "miles_per_hour": "17892.7919292448"
            },
            "miss_distance": {
                "astronomical": "0.0173274783",
                "lunar": "6.7403890587",
                "kilometers": "2592153.846151221",
                "miles": "1610689.7113240098"
            },
            "orbiting_body": "Earth"
        },
        {
            "close_approach_date": "2101-07-26",
            "close_approach_date_full": "2101-Jul-26 08:07",
            "epoch_date_close_approach": 4151808420000,
            "relative_velocity": {
                "kilometers_per_second": "11.6488174616",
                "kilometers_per_hour": "41935.7428616887",
                "miles_per_hour": "26057.2397798087"
            },
            "miss_distance": {
                "astronomical": "0.1457504494",
                "lunar": "56.6969248166",
                "kilometers": "21803956.781782778",
                "miles": "13548350.4988392164"
            },
            "orbiting_body": "Earth"
        }
    ],
    "orbital_data": {
        "orbit_id": "2",
        "orbit_determination_date": "2019-08-26 05:14:26",
        "first_observation_date": "2019-08-19",
        "last_observation_date": "2019-08-26",
        "data_arc_in_days": 7,
        "observations_used": 23,
        "orbit_uncertainty": "8",
        "minimum_orbit_intersection": ".0160345",
        "jupiter_tisserand_invariant": "3.327",
        "epoch_osculation": "2458717.5",
        "eccentricity": ".5619540382494016",
        "semi_major_axis": "2.340989377161277",
        "inclination": "5.456791450224947",
        "ascending_node_longitude": "148.98790745",
        "orbital_period": "1308.270628560759",
        "perihelion_distance": "1.025460943166546",
        "perihelion_argument": "186.7697116507221",
        "aphelion_distance": "3.656517811156008",
        "perihelion_time": "2458723.521588795272",
        "mean_anomaly": "358.3430248153758",
        "mean_motion": ".2751724239166321",
        "equinox": "J2000",
        "orbit_class": {
            "orbit_class_type": "AMO",
            "orbit_class_description": "Near-Earth asteroid orbits similar to that of 1221 Amor",
            "orbit_class_range": "1.017 AU < q (perihelion) < 1.3 AU"
        }
    },
    "is_sentry_object": false
}